format  = 'OEF2.0'       ! file format
rectype = 'ML'           ! record type (1L/ML)
refsys  = ECLM J2000     ! default reference system
END_OF_HEADER
! Gauss(wN)
test/call_orbfit/K21E00A
! Keplerian elements: a, e, i, long. node, arg. peric., mean anomaly
 KEP   1.5834346988159376E+00 0.613572037782866   5.9442185803697 343.7959802838470 270.1932521117385 333.9568546371023
 MJD     59274.310893373 TDT
 MAG   0.000  0.000
! Non-grav parameters: model used, actual number in use, dimension
 LSP   0  0    6
